CCSDS_OEM_VERS = 2.0  
CREATION_DATE  = 2026-03-24T10:38:22
ORIGINATOR     = ESOC/OPS-GFA                            
 
 



META_START
OBJECT_NAME          = LISA                                    
OBJECT_ID            = -1000                                   
CENTER_NAME          = SUN                     
REF_FRAME            = EME2000 
TIME_SYSTEM          = TCB
START_TIME           = 2036-12-23T00:00:30.346418            
STOP_TIME            = 2047-09-05T17:09:22.611728            
INTERPOLATION        = HERMITE                                 
INTERPOLATION_DEGREE = 7                                       
META_STOP

2044-05-29T23:52:34.945555    -1.05689253641713992e+08   -9.85183480651295632e+07   -4.16855421108510122e+07    2.11601690655514147e+01   -1.89922452403592636e+01   -8.41333020324438863e+00    4.12482254838977061e-06    3.84475126366848257e-06    1.62680590354131267e-06
2044-05-30T20:03:24.015312    -1.04141154299162552e+08   -9.98879231523984969e+07   -4.22924485160015002e+07    2.14576650711561498e+01   -1.87109613490451778e+01   -8.29427343304360321e+00    4.06498245588928679e-06    3.89875361489969164e-06    1.65072517288701160e-06
2044-05-31T16:14:13.085068    -1.02571600812400252e+08   -1.01236921409738615e+08   -4.28906427288001031e+07    2.17507829711643019e+01   -1.84257824692063963e+01   -8.17349089129676365e+00    4.00429693710251570e-06    3.95197687847387492e-06    1.67431488091961455e-06
2044-06-01T12:27:23.663751    -1.00977794681656778e+08   -1.02567628446800426e+08   -4.34811395356134698e+07    2.20400197050199260e+01   -1.81361989300485469e+01   -8.05076647122971778e+00    3.94265724416450129e-06    4.00451155080100446e-06    1.69761518730848473e-06
2044-06-02T08:40:34.242432    -9.93630988793845475e+07   -1.03877118073864222e+08   -4.40626417378694043e+07    2.23247395462493188e+01   -1.78428205641292017e+01   -7.92635837570676838e+00    3.88019241923633263e-06    4.05624205083200328e-06    1.72057488884875248e-06
2044-06-03T04:53:44.821114    -9.77278443724552542e+07   -1.05165116231194586e+08   -4.46350276984730512e+07    2.26048828717168711e+01   -1.75457063006977734e+01   -7.80029157171434662e+00    3.81691453773667000e-06    4.10715759461087884e-06    1.74318920725750608e-06
2044-06-04T01:06:55.399795    -9.60723664208788872e+07   -1.06431353123229921e+08   -4.51981775871543512e+07    2.28803909421695941e+01   -1.72449158501442739e+01   -7.67259137241674161e+00    3.75283581196557805e-06    4.15724750650191101e-06    1.76545341051254435e-06
2044-06-04T21:20:05.978477    -9.43970045267975777e+07   -1.07675563321501598e+08   -4.57519734254842922e+07    2.31512059126112888e+01   -1.69405096954877799e+01   -7.54328343352404396e+00    3.68796860188933082e-06    4.20650123584777306e-06    1.78736281988520528e-06
2044-06-05T17:33:16.557159    -9.27021023760834038e+07   -1.08897485844797850e+08   -4.62962991221041009e+07    2.34172708433689323e+01   -1.66325490827634397e+01   -7.41239374919548499e+00    3.62232542345803225e-06    4.25490837064280843e-06    1.80891281570147368e-06
2044-06-06T13:46:27.135840    -9.09880077739593536e+07   -1.10096864221399188e+08   -4.68310405002446175e+07    2.36785297116748445e+01   -1.63210960105226306e+01   -7.27994864756963533e+00    3.55591895445963995e-06    4.30245864822807444e-06    1.83009884183417857e-06
2044-06-07T09:59:37.714523    -8.92550725760757476e+07   -1.11273446538198858e+08   -4.73560853196071908e+07    2.39349274235850373e+01   -1.60062132186632944e+01   -7.14597478601389824e+00    3.48876203790224869e-06    4.34914196299880851e-06    1.85091640892225937e-06
2044-06-08T06:12:48.293205    -8.75036526164744943e+07   -1.12426985481520802e+08   -4.78713232946771681e+07    2.41864098260542590e+01   -1.56879641768074585e+01   -7.01049914618579528e+00    3.42086768293906309e-06    4.39494837114043750e-06    1.87136109632406920e-06
2044-06-09T02:25:58.871886    -8.57341076338738203e+07   -1.13557238374448881e+08   -4.83766461115411073e+07    2.44329237189882278e+01   -1.53664130724430059e+01   -6.87354902899849307e+00    3.35224906331269498e-06    4.43986809236704598e-06    1.89142855279345942e-06
2044-06-09T22:39:09.450568    -8.39468011977055371e+07   -1.14663967215479866e+08   -4.88719474452790320e+07    2.46744168670934378e+01   -1.50416247990466676e+01   -6.73515204958303748e+00    3.28291951335064655e-06    4.48389150869921942e-06    1.91111449589446930e-06
2044-06-10T18:52:20.029250    -8.21421006353376210e+07   -1.15746938723313645e+08   -4.93571229800027758e+07    2.49108380113451275e+01   -1.47136649444052967e+01   -6.59533613233977256e+00    3.21289252148762973e-06    4.52700916024908720e-06    1.93041471014094329e-06
2044-06-11T15:05:30.607931    -8.03203769619142264e+07   -1.16805924392593414e+08   -4.98320704336116239e+07    2.51421368798937586e+01   -1.43825997793524571e+01   -6.45412950617139813e+00    3.14218172129667439e-06    4.56921173800234568e-06    1.94932504385661206e-06
2044-06-12T11:18:41.186613    -7.84820048142457157e+07   -1.17840700565409303e+08   -5.02966895893363804e+07    2.53682641982306087e+01   -1.40484962471373329e+01   -6.31156069999015035e+00    3.07080088011310019e-06    4.61049007367793133e-06    1.96784140479009908e-06
2044-06-13T07:31:51.765294    -7.66273623901811689e+07   -1.18851048523377955e+08   -5.07508823361431956e+07    2.55891716984328035e+01   -1.37114219536429367e+01   -6.16765853859154767e+00    2.99876388513842991e-06    4.65083512655083585e-06    1.98595975443595265e-06
2044-06-14T03:45:02.343977    -7.47568313948955685e+07   -1.19836754605112001e+08   -5.11945527200681120e+07    2.58048121273083808e+01   -1.33714451586708165e+01   -6.02245213898718834e+00    2.92608472705653267e-06    4.69023796727203118e-06    2.00367610107650274e-06
2044-06-15T00:04:39.746220    -7.28607334524888992e+07   -1.20802649511885509e+08   -5.16298797045122311e+07    2.60162427113815049e+01   -1.30268055463735166e+01   -5.87518911836558555e+00    2.85238664723904196e-06    4.72889199160725911e-06    2.02107758124148560e-06
2044-06-15T20:24:17.148462    -7.09493614552704692e+07   -1.21743221970219120e+08   -5.20543841467014626e+07    2.62222574890868145e+01   -1.26793727566565178e+01   -5.72666782893105086e+00    2.77806863300405365e-06    4.76657645300811569e-06    2.03806501663112230e-06
2044-06-16T16:43:54.550705    -6.90231133614031672e+07   -1.22658270215989515e+08   -5.24679750947200730e+07    2.64228116356444112e+01   -1.23292180466997632e+01   -5.57691870726606620e+00    2.70314547445794159e-06    4.80328297951885471e-06    2.05463464816232295e-06
2044-06-17T13:03:31.952949    -6.70823903688559458e+07   -1.23547597662868127e+08   -5.28705638084217161e+07    2.66178614131163656e+01   -1.19764132814310855e+01   -5.42597246297149560e+00    2.62763208692671395e-06    4.83900333666897137e-06    2.07078277476685251e-06
2044-06-18T09:23:09.355191    -6.51275968371182606e+07   -1.24411012997390717e+08   -5.32620638013145626e+07    2.68073641797847593e+01   -1.16210309226835538e+01   -5.27386007408034185e+00    2.55154351648003807e-06    4.87372944814447896e-06    2.08650576240585477e-06
2044-06-19T05:42:46.757434    -6.31591402073720917e+07   -1.25248330248865277e+08   -5.36423908715624884e+07    2.69912783998697208e+01   -1.12631440169779928e+01   -5.12061278187152702e+00    2.47489494376458889e-06    4.90745341277486067e-06    2.10180005148951581e-06
2044-06-20T02:02:24.159677    -6.11774309212843031e+07   -1.26059368839419499e+08   -5.40114631243968606e+07    2.71695636534661951e+01   -1.09028261821970496e+01   -4.96626208519896029e+00    2.39770168614900317e-06    4.94016751784289811e-06    2.11666216270492470e-06
2044-06-20T22:22:01.561920    -5.91828823385989219e+07   -1.26843953619478270e+08   -5.43692009882286638e+07    2.73421806465757271e+01   -1.05401515934201218e+01   -4.81083973445252688e+00    2.31997919817459843e-06    4.97186424870677245e-06    2.13108870124756593e-06
2044-06-21T18:41:38.964163    -5.71759106537086815e+07   -1.27601914893961444e+08   -5.47155272267507091e+07    2.75090912211095464e+01   -1.01751949681885012e+01   -4.65437772526758309e+00    2.24174307032205191e-06    5.00253629475306365e-06    2.14507635946441579e-06
2044-06-22T15:01:16.366406    -5.51569348113854006e+07   -1.28333088444492415e+08   -5.50503669493198246e+07    2.76702583647392721e+01   -9.80803155147013506e+00   -4.49690829209956888e+00    2.16300902607756387e-06    5.03217655165021810e-06    2.15862191789562824e-06
2044-06-23T11:20:53.768649    -5.31263764218486547e+07   -1.29037315552907735e+08   -5.53736476219084561e+07    2.78256462204715156e+01   -9.43873710059326321e+00   -4.33846390178031172e+00    2.08379291732074628e-06    5.06077811994527758e-06    2.17172224473328585e-06
2044-06-24T07:40:31.170892    -5.10846596753520668e+07   -1.29714443031358317e+08   -5.56852990809157863e+07    2.79752200958226922e+01   -9.06738787041838812e+00   -4.17907724717266049e+00    2.00411071801783187e-06    5.08833429996742519e-06    2.18437429368111362e-06
2044-06-25T04:00:08.573135    -4.90322112564670146e+07   -1.30364323264292523e+08   -5.59852535521278977e+07    2.81189464714703377e+01   -8.69406059901783834e+00   -4.01878124104001877e+00    1.92397851620623486e-06    5.11483858302457118e-06    2.19657510021006222e-06
2044-06-26T00:19:45.975378    -4.69694602582425699e+07   -1.30986814267611489e+08   -5.62734456771167219e+07    2.82567930092572119e+01   -8.31883249413235681e+00   -3.85760901024738612e+00    1.84341250433090681e-06    5.14028463898910929e-06    2.20832177625004995e-06
2044-06-26T20:39:23.377621    -4.48968380964222550e+07   -1.31581779770287246e+08   -5.65498125493676960e+07    2.83887285594245142e+01   -7.94178122067398640e+00   -3.69559389041052277e+00    1.76242896785240906e-06    5.16466630013765812e-06    2.21961150326065682e-06
